{
  "norad_id": 52137,
  "name": "STARLINK-3733",
  "history": [
    {
      "epoch": "2026-04-10T05:59:21.861312Z",
      "apogee_km": 540.6560274443164,
      "perigee_km": 538.8160115785868,
      "latitude_deg": 3.8724537381059306e-05,
      "longitude_deg": -0.8872666522902899,
      "height_km": 540.6379572398118,
      "semi_major_axis_km": 6917.873019511451,
      "eccentricity": 0.00013299,
      "inclination_deg": 53.2169,
      "raan_deg": 287.4399,
      "arg_perigee_deg": 90.3891,
      "mean_anomaly_deg": 269.7254,
      "mean_motion_rev_day": 15.08842411
    },
    {
      "epoch": "2026-04-11T20:08:37.465728Z",
      "apogee_km": 540.670169965696,
      "perigee_km": 538.8410791557626,
      "latitude_deg": 3.149405080334319e-05,
      "longitude_deg": 138.09406363360876,
      "height_km": 540.6596160108352,
      "semi_major_axis_km": 6917.892624560729,
      "eccentricity": 0.0001322,
      "inclination_deg": 53.2169,
      "raan_deg": 280.3032,
      "arg_perigee_deg": 90.5195,
      "mean_anomaly_deg": 269.5949,
      "mean_motion_rev_day": 15.08835997
    },
    {
      "epoch": "2026-04-13T03:56:20.391360Z",
      "apogee_km": 540.6518315489366,
      "perigee_km": 538.858298852113,
      "latitude_deg": 2.7994367549220023e-05,
      "longitude_deg": 13.912218757212685,
      "height_km": 540.6390737244227,
      "semi_major_axis_km": 6917.8920652005245,
      "eccentricity": 0.00012963,
      "inclination_deg": 53.2169,
      "raan_deg": 274.356,
      "arg_perigee_deg": 89.2507,
      "mean_anomaly_deg": 270.8634,
      "mean_motion_rev_day": 15.0883618
    },
    {
      "epoch": "2026-04-14T19:40:59.056608Z",
      "apogee_km": 540.6427760159031,
      "perigee_km": 538.8745618829189,
      "latitude_deg": -4.262929553321854e-05,
      "longitude_deg": 128.68473166821047,
      "height_km": 540.6755736953952,
      "semi_major_axis_km": 6917.895668949411,
      "eccentricity": 0.0001278,
      "inclination_deg": 53.2165,
      "raan_deg": 266.9219,
      "arg_perigee_deg": 91.3725,
      "mean_anomaly_deg": 268.7413,
      "mean_motion_rev_day": 15.08835001
    },
    {
      "epoch": "2026-04-15T19:31:46.068096Z",
      "apogee_km": 540.6441355947854,
      "perigee_km": 538.8537867080395,
      "latitude_deg": -2.9052755247955893e-05,
      "longitude_deg": 125.54852594048053,
      "height_km": 540.7943864596122,
      "semi_major_axis_km": 6917.885961151412,
      "eccentricity": 0.0001294,
      "inclination_deg": 53.2171,
      "raan_deg": 262.4609,
      "arg_perigee_deg": 99.6225,
      "mean_anomaly_deg": 260.4913,
      "mean_motion_rev_day": 15.08838177
    },
    {
      "epoch": "2026-04-16T14:36:23.738112Z",
      "apogee_km": 540.6338486613204,
      "perigee_km": 538.8670202105659,
      "latitude_deg": 9.641023925284352e-06,
      "longitude_deg": -164.96107207897174,
      "height_km": 540.5681199759346,
      "semi_major_axis_km": 6917.887434435943,
      "eccentricity": 0.0001277,
      "inclination_deg": 53.2183,
      "raan_deg": 258.8917,
      "arg_perigee_deg": 84.9191,
      "mean_anomaly_deg": 275.1947,
      "mean_motion_rev_day": 15.08837695
    },
    {
      "epoch": "2026-04-17T09:41:01.294080Z",
      "apogee_km": 540.5934225386973,
      "perigee_km": 538.8971578011469,
      "latitude_deg": -4.907730206675118e-05,
      "longitude_deg": -95.4675663416357,
      "height_km": 540.6539211120493,
      "semi_major_axis_km": 6917.882290169921,
      "eccentricity": 0.0001226,
      "inclination_deg": 53.2175,
      "raan_deg": 255.3252,
      "arg_perigee_deg": 90.8595,
      "mean_anomaly_deg": 269.2537,
      "mean_motion_rev_day": 15.08839378
    },
    {
      "epoch": "2026-04-18T15:53:20.814144Z",
      "apogee_km": 540.5293365999696,
      "perigee_km": 538.9575941582361,
      "latitude_deg": 6.094892886602386e-05,
      "longitude_deg": 164.56048993740222,
      "height_km": 540.6655790213156,
      "semi_major_axis_km": 6917.880465379103,
      "eccentricity": 0.0001136,
      "inclination_deg": 53.2175,
      "raan_deg": 249.675,
      "arg_perigee_deg": 91.9031,
      "mean_anomaly_deg": 268.2092,
      "mean_motion_rev_day": 15.08839975
    },
    {
      "epoch": "2026-04-19T15:44:05.227584Z",
      "apogee_km": 540.4384988880083,
      "perigee_km": 538.9151962787719,
      "latitude_deg": -2.154429472536663e-05,
      "longitude_deg": 161.43466488987025,
      "height_km": 540.7106890474029,
      "semi_major_axis_km": 6917.81384758339,
      "eccentricity": 0.0001101,
      "inclination_deg": 53.2178,
      "raan_deg": 245.2136,
      "arg_perigee_deg": 100.4162,
      "mean_anomaly_deg": 259.6954,
      "mean_motion_rev_day": 15.0886177
    },
    {
      "epoch": "2026-04-20T10:48:49.655808Z",
      "apogee_km": 540.2999304055702,
      "perigee_km": 539.5031107287714,
      "latitude_deg": -9.361848667324959e-06,
      "longitude_deg": -129.1018920915088,
      "height_km": 540.7979171221375,
      "semi_major_axis_km": 6918.038520567171,
      "eccentricity": 5.759e-05,
      "inclination_deg": 53.2185,
      "raan_deg": 241.6457,
      "arg_perigee_deg": 89.935,
      "mean_anomaly_deg": 270.1708,
      "mean_motion_rev_day": 15.08788267
    },
    {
      "epoch": "2026-04-21T17:00:58.802688Z",
      "apogee_km": 539.809783748733,
      "perigee_km": 539.1360085448487,
      "latitude_deg": -7.855563189387603e-05,
      "longitude_deg": 130.96646711363246,
      "height_km": 540.3712976535892,
      "semi_major_axis_km": 6917.609896146791,
      "eccentricity": 4.87e-05,
      "inclination_deg": 53.2173,
      "raan_deg": 235.9926,
      "arg_perigee_deg": 90.2556,
      "mean_anomaly_deg": 269.8491,
      "mean_motion_rev_day": 15.08928499
    },
    {
      "epoch": "2026-04-22T12:05:44.189952Z",
      "apogee_km": 540.5319627093459,
      "perigee_km": 539.1262319983625,
      "latitude_deg": -3.5950993019740614e-05,
      "longitude_deg": -159.57117474586337,
      "height_km": 540.6300856927049,
      "semi_major_axis_km": 6917.966097353854,
      "eccentricity": 0.0001016,
      "inclination_deg": 53.2173,
      "raan_deg": 232.4276,
      "arg_perigee_deg": 82.2169,
      "mean_anomaly_deg": 277.8938,
      "mean_motion_rev_day": 15.0881196
    },
    {
      "epoch": "2026-04-23T00:48:48.528000Z",
      "apogee_km": 540.6645738996558,
      "perigee_km": 538.7400310057146,
      "latitude_deg": 2.1939436725513163e-05,
      "longitude_deg": 6.759187401284583,
      "height_km": 540.5032711098369,
      "semi_major_axis_km": 6917.839302452685,
      "eccentricity": 0.0001391,
      "inclination_deg": 53.2167,
      "raan_deg": 230.0483,
      "arg_perigee_deg": 84.3562,
      "mean_anomaly_deg": 275.7589,
      "mean_motion_rev_day": 15.08853442
    },
    {
      "epoch": "2026-04-24T14:58:03.789408Z",
      "apogee_km": 540.6151296796079,
      "perigee_km": 538.8220215144147,
      "latitude_deg": 2.907894402587323e-05,
      "longitude_deg": 145.7417623023022,
      "height_km": 540.6197830107714,
      "semi_major_axis_km": 6917.855575597011,
      "eccentricity": 0.0001296,
      "inclination_deg": 53.217,
      "raan_deg": 222.9114,
      "arg_perigee_deg": 90.3487,
      "mean_anomaly_deg": 269.7654,
      "mean_motion_rev_day": 15.08848118
    },
    {
      "epoch": "2026-04-25T13:13:27.898176Z",
      "apogee_km": 540.675676418,
      "perigee_km": 538.8313668049395,
      "latitude_deg": -6.4384790462243e-05,
      "longitude_deg": 166.8150891764878,
      "height_km": 540.6801462259181,
      "semi_major_axis_km": 6917.89052161147,
      "eccentricity": 0.0001333,
      "inclination_deg": 53.2171,
      "raan_deg": 218.7493,
      "arg_perigee_deg": 91.9205,
      "mean_anomaly_deg": 268.1939,
      "mean_motion_rev_day": 15.08836685
    },
    {
      "epoch": "2026-04-26T13:04:15.078144Z",
      "apogee_km": 540.7697366181219,
      "perigee_km": 538.722873305851,
      "latitude_deg": 3.3916503847433575e-06,
      "longitude_deg": 163.6774182012185,
      "height_km": 540.8256557171953,
      "semi_major_axis_km": 6917.883304961986,
      "eccentricity": 0.00014794,
      "inclination_deg": 53.2179,
      "raan_deg": 214.2875,
      "arg_perigee_deg": 100.3419,
      "mean_anomaly_deg": 259.774,
      "mean_motion_rev_day": 15.08839046
    },
    {
      "epoch": "2026-04-27T12:55:02.075808Z",
      "apogee_km": 540.6397584133374,
      "perigee_km": 538.8673948476044,
      "latitude_deg": 8.27469931693049e-06,
      "longitude_deg": 160.54396256132264,
      "height_km": 540.6670035366404,
      "semi_major_axis_km": 6917.890576630471,
      "eccentricity": 0.0001281,
      "inclination_deg": 53.2174,
      "raan_deg": 209.8292,
      "arg_perigee_deg": 91.1389,
      "mean_anomaly_deg": 268.975,
      "mean_motion_rev_day": 15.08836667
    },
    {
      "epoch": "2026-04-28T12:45:49.785408Z",
      "apogee_km": 540.6592191514883,
      "perigee_km": 538.8965344408807,
      "latitude_deg": -1.4155628383439629e-06,
      "longitude_deg": 157.40522162528924,
      "height_km": 540.7079243926513,
      "semi_major_axis_km": 6917.914876796184,
      "eccentricity": 0.0001274,
      "inclination_deg": 53.2176,
      "raan_deg": 205.3686,
      "arg_perigee_deg": 92.2242,
      "mean_anomaly_deg": 267.8896,
      "mean_motion_rev_day": 15.08828717
    },
    {
      "epoch": "2026-04-29T12:36:35.705664Z",
      "apogee_km": 540.4790216858828,
      "perigee_km": 538.9692676696686,
      "latitude_deg": 6.592843811509136e-05,
      "longitude_deg": 154.2740136871432,
      "height_km": 540.621792866569,
      "semi_major_axis_km": 6917.861144677775,
      "eccentricity": 0.00010912,
      "inclination_deg": 53.2178,
      "raan_deg": 200.908,
      "arg_perigee_deg": 90.1168,
      "mean_anomaly_deg": 269.995,
      "mean_motion_rev_day": 15.08846296
    }
  ]
}